STARLINK-33883          
1 63781U 25091G   25315.16899608  .00016888  00000+0  62163-3 0  9996
2 63781  42.9996   2.0764 0000655 297.6865  62.3920 15.27588668 30779
STARLINK-33842          
1 63782U 25091H   25315.22025283  .00034322  00000+0  12510-2 0  9997
2 63782  42.9992   1.5996 0001352 250.1300 109.9406 15.27579285 30873
STARLINK-33892          
1 63783U 25091J   25315.21896567  .00029288  00000+0  10690-2 0  9990
2 63783  43.0028   1.5902 0000778 218.1066 141.9731 15.27598763 30786
STARLINK-33933          
1 63784U 25091K   25315.08915759  .00035827  00000+0  13045-2 0  9994
2 63784  43.0020 355.3801 0000990 267.5847  92.4891 15.27596370 30956
STARLINK-33906          
1 63785U 25091L   25315.16129071  .00034053  00000+0  12404-2 0  9996
2 63785  42.9989   2.0184 0000236 322.0269  38.0566 15.27604024 30723
STARLINK-33923          
1 63786U 25091M   25315.16000425  .00034446  00000+0  12547-2 0  9992
2 63786  42.9988   2.0088 0000535 285.9027  74.1766 15.27600225 30729
STARLINK-33947          
1 63787U 25091N   25315.18184836  .00047921  00000+0  17380-2 0  9996
2 63787  43.0041   2.1692 0001253 239.9809 120.0918 15.27611332 30775
STARLINK-33882          
1 63788U 25091P   25315.15229322  .00035494  00000+0  12919-2 0  9999
2 63788  42.9989   1.9467 0000595 206.2212 153.8609 15.27612534 30760
STARLINK-33875          
1 63789U 25091Q   25315.14072985  .00048357  00000+0  17540-2 0  9997
2 63789  42.9983   1.8580 0000864 252.4106 107.6652 15.27605034 30777
STARLINK-33869          
1 63790U 25091R   25315.13430451  .00049585  00000+0  17976-2 0  9991
2 63790  42.9992   1.8103 0000133 247.5022 112.5816 15.27611934 30729
STARLINK-33935          
1 63791U 25091S   25315.17799455  .00044213  00000+0  16049-2 0  9991
2 63791  43.0052   2.1436 0002700 284.7071  75.3481 15.27613190 30888
STARLINK-33916          
1 63792U 25091T   25315.17413689  .00018273  00000+0  67175-3 0  9998
2 63792  43.0017   2.1119 0000612 257.1027 102.9756 15.27588442 30774
STARLINK-33925          
1 63793U 25091U   25315.13816838  .00040647  00000+0  14767-2 0  9996
2 63793  42.9996   1.8399 0001011 280.7553  79.3185 15.27620120 30880
STARLINK-33870          
1 63794U 25091V   25315.19712187  .00050873  00000+0  18430-2 0  9998
2 63794  43.0036   1.4262 0003386 288.0572  71.9910 15.27622294 30789
STARLINK-33867          
1 63795U 25091W   25315.16642895  .00054133  00000+0  19630-2 0  9990
2 63795  43.0014   2.0552 0000988 265.1265  94.9474 15.27568478 30777
STARLINK-33918          
1 63796U 25091X   25315.16771472  .00039313  00000+0  14287-2 0  9991
2 63796  43.0020   2.0661 0003144 297.7697  62.2836 15.27619595 30826
