[{"OBJECT_NAME":"STARLINK-33883","OBJECT_ID":"2025-091G","EPOCH":"2025-11-11T04:03:21.261312","MEAN_MOTION":15.27588668,"ECCENTRICITY":6.555e-5,"INCLINATION":42.9996,"RA_OF_ASC_NODE":2.0764,"ARG_OF_PERICENTER":297.6865,"MEAN_ANOMALY":62.392,"EPHEMERIS_TYPE":0,"CLASSIFICATION_TYPE":"U","NORAD_CAT_ID":63781,"ELEMENT_SET_NO":999,"REV_AT_EPOCH":3077,"BSTAR":0.00062162926,"MEAN_MOTION_DOT":0.00016888,"MEAN_MOTION_DDOT":0},{"OBJECT_NAME":"STARLINK-33842","OBJECT_ID":"2025-091H","EPOCH":"2025-11-11T05:17:09.844512","MEAN_MOTION":15.27579285,"ECCENTRICITY":0.00013524,"INCLINATION":42.9992,"RA_OF_ASC_NODE":1.5996,"ARG_OF_PERICENTER":250.13,"MEAN_ANOMALY":109.9406,"EPHEMERIS_TYPE":0,"CLASSIFICATION_TYPE":"U","NORAD_CAT_ID":63782,"ELEMENT_SET_NO":999,"REV_AT_EPOCH":3087,"BSTAR":0.0012509733,"MEAN_MOTION_DOT":0.00034322,"MEAN_MOTION_DDOT":0},{"OBJECT_NAME":"STARLINK-33892","OBJECT_ID":"2025-091J","EPOCH":"2025-11-11T05:15:18.633888","MEAN_MOTION":15.27598763,"ECCENTRICITY":7.78e-5,"INCLINATION":43.0028,"RA_OF_ASC_NODE":1.5902,"ARG_OF_PERICENTER":218.1066,"MEAN_ANOMALY":141.9731,"EPHEMERIS_TYPE":0,"CLASSIFICATION_TYPE":"U","NORAD_CAT_ID":63783,"ELEMENT_SET_NO":999,"REV_AT_EPOCH":3078,"BSTAR":0.0010690123,"MEAN_MOTION_DOT":0.00029288,"MEAN_MOTION_DDOT":0},{"OBJECT_NAME":"STARLINK-33933","OBJECT_ID":"2025-091K","EPOCH":"2025-11-11T02:08:23.215776","MEAN_MOTION":15.2759637,"ECCENTRICITY":9.904e-5,"INCLINATION":43.002,"RA_OF_ASC_NODE":355.3801,"ARG_OF_PERICENTER":267.5847,"MEAN_ANOMALY":92.4891,"EPHEMERIS_TYPE":0,"CLASSIFICATION_TYPE":"U","NORAD_CAT_ID":63784,"ELEMENT_SET_NO":999,"REV_AT_EPOCH":3095,"BSTAR":0.0013044877,"MEAN_MOTION_DOT":0.00035827,"MEAN_MOTION_DDOT":0},{"OBJECT_NAME":"STARLINK-33906","OBJECT_ID":"2025-091L","EPOCH":"2025-11-11T03:52:15.517344","MEAN_MOTION":15.27604024,"ECCENTRICITY":2.368e-5,"INCLINATION":42.9989,"RA_OF_ASC_NODE":2.0184,"ARG_OF_PERICENTER":322.0269,"MEAN_ANOMALY":38.0566,"EPHEMERIS_TYPE":0,"CLASSIFICATION_TYPE":"U","NORAD_CAT_ID":63785,"ELEMENT_SET_NO":999,"REV_AT_EPOCH":3072,"BSTAR":0.0012403651,"MEAN_MOTION_DOT":0.00034053,"MEAN_MOTION_DDOT":0},{"OBJECT_NAME":"STARLINK-33923","OBJECT_ID":"2025-091M","EPOCH":"2025-11-11T03:50:24.367200","MEAN_MOTION":15.27600225,"ECCENTRICITY":5.353e-5,"INCLINATION":42.9988,"RA_OF_ASC_NODE":2.0088,"ARG_OF_PERICENTER":285.9027,"MEAN_ANOMALY":74.1766,"EPHEMERIS_TYPE":0,"CLASSIFICATION_TYPE":"U","NORAD_CAT_ID":63786,"ELEMENT_SET_NO":999,"REV_AT_EPOCH":3072,"BSTAR":0.0012546734,"MEAN_MOTION_DOT":0.00034446,"MEAN_MOTION_DDOT":0},{"OBJECT_NAME":"STARLINK-33947","OBJECT_ID":"2025-091N","EPOCH":"2025-11-11T04:21:51.698304","MEAN_MOTION":15.27611332,"ECCENTRICITY":0.0001253,"INCLINATION":43.0041,"RA_OF_ASC_NODE":2.1692,"ARG_OF_PERICENTER":239.9809,"MEAN_ANOMALY":120.0918,"EPHEMERIS_TYPE":0,"CLASSIFICATION_TYPE":"U","NORAD_CAT_ID":63787,"ELEMENT_SET_NO":999,"REV_AT_EPOCH":3077,"BSTAR":0.0017379923,"MEAN_MOTION_DOT":0.00047921,"MEAN_MOTION_DDOT":0},{"OBJECT_NAME":"STARLINK-33882","OBJECT_ID":"2025-091P","EPOCH":"2025-11-11T03:39:18.134208","MEAN_MOTION":15.27612534,"ECCENTRICITY":5.953e-5,"INCLINATION":42.9989,"RA_OF_ASC_NODE":1.9467,"ARG_OF_PERICENTER":206.2212,"MEAN_ANOMALY":153.8609,"EPHEMERIS_TYPE":0,"CLASSIFICATION_TYPE":"U","NORAD_CAT_ID":63788,"ELEMENT_SET_NO":999,"REV_AT_EPOCH":3076,"BSTAR":0.0012918613,"MEAN_MOTION_DOT":0.00035494,"MEAN_MOTION_DDOT":0},{"OBJECT_NAME":"STARLINK-33875","OBJECT_ID":"2025-091Q","EPOCH":"2025-11-11T03:22:39.059040","MEAN_MOTION":15.27605034,"ECCENTRICITY":8.641e-5,"INCLINATION":42.9983,"RA_OF_ASC_NODE":1.858,"ARG_OF_PERICENTER":252.4106,"MEAN_ANOMALY":107.6652,"EPHEMERIS_TYPE":0,"CLASSIFICATION_TYPE":"U","NORAD_CAT_ID":63789,"ELEMENT_SET_NO":999,"REV_AT_EPOCH":3077,"BSTAR":0.0017539519,"MEAN_MOTION_DOT":0.00048357,"MEAN_MOTION_DDOT":0},{"OBJECT_NAME":"STARLINK-33869","OBJECT_ID":"2025-091R","EPOCH":"2025-11-11T03:13:23.909664","MEAN_MOTION":15.27611934,"ECCENTRICITY":1.333e-5,"INCLINATION":42.9992,"RA_OF_ASC_NODE":1.8103,"ARG_OF_PERICENTER":247.5022,"MEAN_ANOMALY":112.5816,"EPHEMERIS_TYPE":0,"CLASSIFICATION_TYPE":"U","NORAD_CAT_ID":63790,"ELEMENT_SET_NO":999,"REV_AT_EPOCH":3072,"BSTAR":0.0017975703,"MEAN_MOTION_DOT":0.00049585,"MEAN_MOTION_DDOT":0},{"OBJECT_NAME":"STARLINK-33935","OBJECT_ID":"2025-091S","EPOCH":"2025-11-11T04:16:18.729120","MEAN_MOTION":15.2761319,"ECCENTRICITY":0.00027006,"INCLINATION":43.0052,"RA_OF_ASC_NODE":2.1436,"ARG_OF_PERICENTER":284.7071,"MEAN_ANOMALY":75.3481,"EPHEMERIS_TYPE":0,"CLASSIFICATION_TYPE":"U","NORAD_CAT_ID":63791,"ELEMENT_SET_NO":999,"REV_AT_EPOCH":3088,"BSTAR":0.0016048688,"MEAN_MOTION_DOT":0.00044213,"MEAN_MOTION_DDOT":0},{"OBJECT_NAME":"STARLINK-33916","OBJECT_ID":"2025-091T","EPOCH":"2025-11-11T04:10:45.427296","MEAN_MOTION":15.27588442,"ECCENTRICITY":6.125e-5,"INCLINATION":43.0017,"RA_OF_ASC_NODE":2.1119,"ARG_OF_PERICENTER":257.1027,"MEAN_ANOMALY":102.9756,"EPHEMERIS_TYPE":0,"CLASSIFICATION_TYPE":"U","NORAD_CAT_ID":63792,"ELEMENT_SET_NO":999,"REV_AT_EPOCH":3077,"BSTAR":0.00067174525,"MEAN_MOTION_DOT":0.00018273,"MEAN_MOTION_DDOT":0},{"OBJECT_NAME":"STARLINK-33925","OBJECT_ID":"2025-091U","EPOCH":"2025-11-11T03:18:57.748032","MEAN_MOTION":15.2762012,"ECCENTRICITY":0.00010117,"INCLINATION":42.9996,"RA_OF_ASC_NODE":1.8399,"ARG_OF_PERICENTER":280.7553,"MEAN_ANOMALY":79.3185,"EPHEMERIS_TYPE":0,"CLASSIFICATION_TYPE":"U","NORAD_CAT_ID":63793,"ELEMENT_SET_NO":999,"REV_AT_EPOCH":3088,"BSTAR":0.0014766786,"MEAN_MOTION_DOT":0.00040647,"MEAN_MOTION_DDOT":0},{"OBJECT_NAME":"STARLINK-33870","OBJECT_ID":"2025-091V","EPOCH":"2025-11-11T04:43:51.329568","MEAN_MOTION":15.27622294,"ECCENTRICITY":0.00033869,"INCLINATION":43.0036,"RA_OF_ASC_NODE":1.4262,"ARG_OF_PERICENTER":288.0572,"MEAN_ANOMALY":71.991,"EPHEMERIS_TYPE":0,"CLASSIFICATION_TYPE":"U","NORAD_CAT_ID":63794,"ELEMENT_SET_NO":999,"REV_AT_EPOCH":3078,"BSTAR":0.0018429555,"MEAN_MOTION_DOT":0.00050873,"MEAN_MOTION_DDOT":0},{"OBJECT_NAME":"STARLINK-33867","OBJECT_ID":"2025-091W","EPOCH":"2025-11-11T03:59:39.461280","MEAN_MOTION":15.27568478,"ECCENTRICITY":9.881e-5,"INCLINATION":43.0014,"RA_OF_ASC_NODE":2.0552,"ARG_OF_PERICENTER":265.1265,"MEAN_ANOMALY":94.9474,"EPHEMERIS_TYPE":0,"CLASSIFICATION_TYPE":"U","NORAD_CAT_ID":63795,"ELEMENT_SET_NO":999,"REV_AT_EPOCH":3077,"BSTAR":0.0019629998,"MEAN_MOTION_DOT":0.00054133,"MEAN_MOTION_DDOT":0},{"OBJECT_NAME":"STARLINK-33918","OBJECT_ID":"2025-091X","EPOCH":"2025-11-11T04:01:30.551808","MEAN_MOTION":15.27619595,"ECCENTRICITY":0.00031446,"INCLINATION":43.002,"RA_OF_ASC_NODE":2.0661,"ARG_OF_PERICENTER":297.7697,"MEAN_ANOMALY":62.2836,"EPHEMERIS_TYPE":0,"CLASSIFICATION_TYPE":"U","NORAD_CAT_ID":63796,"ELEMENT_SET_NO":999,"REV_AT_EPOCH":3082,"BSTAR":0.0014286846,"MEAN_MOTION_DOT":0.00039313,"MEAN_MOTION_DDOT":0}]
